COMMENT,ORIGINATOR,NORAD_CAT_ID,OBJECT_NAME,OBJECT_TYPE,CLASSIFICATION_TYPE,INTLDES,EPOCH,EPOCH_MICROSECONDS,MEAN_MOTION,ECCENTRICITY,INCLINATION,RA_OF_ASC_NODE,ARG_OF_PERICENTER,MEAN_ANOMALY,EPHEMERIS_TYPE,ELEMENT_SET_NO,REV_AT_EPOCH,BSTAR,MEAN_MOTION_DOT,MEAN_MOTION_DDOT,FILE,TLE_LINE0,TLE_LINE1,TLE_LINE2,OBJECT_ID,OBJECT_NUMBER,SEMIMAJOR_AXIS,PERIOD,APOGEE,PERIGEE,DECAYED,date
GENERATED VIA SPACETRACK.ORG API,18 SPCS,48896,SPACEBEE-105,PAYLOAD,U,21059T,2023/4/3 8:30,396416,15.2702845,0.0007924,97.5835,228.6668,171.8863,188.2505,0,999,9795,0.0015941,0.00042438,0,3878826,0 SPACEBEE-105,1 48896U 21059T   23093.35466894  .00042438  00000-0  15941-2 0  9997,2 48896  97.5835 228.6668 0007924 171.8863 188.2505 15.27028450 97951,2021-059T,48896,6862.838,94.301,490.141,479.265,0,
GENERATED VIA SPACETRACK.ORG API,18 SPCS,48896,SPACEBEE-105,PAYLOAD,U,21059T,2023/4/3 8:30,396416,15.2702845,0.0007924,97.5835,228.6668,171.8863,188.2505,0,999,9795,0.0015941,0.00042438,0,3879059,0 SPACEBEE-105,1 48896U 21059T   23093.35466894  .00042438  00000-0  15941-2 0  9997,2 48896  97.5835 228.6668 0007924 171.8863 188.2505 15.27028450 97951,2021-059T,48896,6862.838,94.301,490.141,479.265,0,
GENERATED VIA SPACETRACK.ORG API,18 SPCS,48896,SPACEBEE-105,PAYLOAD,U,21059T,2023/4/3 21:05,207456,15.27070989,0.0007902,97.5837,229.1995,170.4847,189.6542,0,999,9803,0.0015453,0.00041182,0,3879321,0 SPACEBEE-105,1 48896U 21059T   23093.87889129  .00041182  00000-0  15453-2 0  9997,2 48896  97.5837 229.1995 0007902 170.4847 189.6542 15.27070989 98035,2021-059T,48896,6862.711,94.298,489.999,479.153,0,
GENERATED VIA SPACETRACK.ORG API,18 SPCS,48896,SPACEBEE-105,PAYLOAD,U,21059T,2023/4/4 14:23,781760,15.27127245,0.0007843,97.5839,229.932,168.1532,191.9893,0,999,9814,0.0014807,0.00039515,0,3879974,0 SPACEBEE-105,1 48896U 21059T   23094.59967340  .00039515  00000-0  14807-2 0  9998,2 48896  97.5839 229.9320 0007843 168.1532 191.9893 15.27127245 98141,2021-059T,48896,6862.542,94.295,489.789,479.025,0,
GENERATED VIA SPACETRACK.ORG API,18 SPCS,48896,SPACEBEE-105,PAYLOAD,U,21059T,2023/4/4 14:23,781760,15.27127245,0.0007843,97.5839,229.932,168.1532,191.9893,0,999,9814,0.0014807,0.00039515,0,3880059,0 SPACEBEE-105,1 48896U 21059T   23094.59967340  .00039515  00000-0  14807-2 0  9998,2 48896  97.5839 229.9320 0007843 168.1532 191.9893 15.27127245 98141,2021-059T,48896,6862.542,94.295,489.789,479.025,0,
GENERATED VIA SPACETRACK.ORG API,18 SPCS,48896,SPACEBEE-105,PAYLOAD,U,21059T,2023/4/4 22:15,65088,15.27152533,0.0007825,97.5841,230.2649,167.0917,193.0523,0,999,9819,0.0013833,0.00036926,0,3880211,0 SPACEBEE-105,1 48896U 21059T   23094.92729242  .00036926  00000-0  13833-2 0  9993,2 48896  97.5841 230.2649 0007825 167.0917 193.0523 15.27152533 98194,2021-059T,48896,6862.466,94.293,489.701,478.962,0,
GENERATED VIA SPACETRACK.ORG API,18 SPCS,48896,SPACEBEE-105,PAYLOAD,U,21059T,2023/4/5 7:41,942048,15.27187227,0.0007843,97.5842,230.6645,165.7651,194.381,0,999,9825,0.0015265,0.00040821,0,3880853,0 SPACEBEE-105,1 48896U 21059T   23095.32042757  .00040821  00000-0  15265-2 0  9997,2 48896  97.5842 230.6645 0007843 165.7651 194.3810 15.27187227 98253,2021-059T,48896,6862.362,94.291,489.61,478.845,0,
GENERATED VIA SPACETRACK.ORG API,18 SPCS,48896,SPACEBEE-105,PAYLOAD,U,21059T,2023/4/5 20:16,71072,15.27227988,0.0007826,97.5846,231.1972,163.8122,196.3368,0,999,9833,0.0014467,0.0003872,0,3881000,0 SPACEBEE-105,1 48896U 21059T   23095.84459573  .00038720  00000-0  14467-2 0  9990,2 48896  97.5846 231.1972 0007826 163.8122 196.3368 15.27227988 98337,2021-059T,48896,6862.24,94.288,489.476,478.735,0,
GENERATED VIA SPACETRACK.ORG API,18 SPCS,48896,SPACEBEE-105,PAYLOAD,U,21059T,2023/4/6 8:50,975808,15.27267289,0.0007814,97.5847,231.7301,162.1013,198.0502,0,999,9841,0.0013827,0.00037039,0,3881771,0 SPACEBEE-105,1 48896U 21059T   23096.36874972  .00037039  00000-0  13827-2 0  9993,2 48896  97.5847 231.7301 0007814 162.1013 198.0502 15.27267289 98414,2021-059T,48896,6862.123,94.286,489.35,478.626,0,
GENERATED VIA SPACETRACK.ORG API,18 SPCS,48896,SPACEBEE-105,PAYLOAD,U,21059T,2023/4/7 2:08,545152,15.27320169,0.00078,97.5849,232.4628,159.8947,200.26,0,999,9852,0.001334,0.00035783,0,3882144,0 SPACEBEE-105,1 48896U 21059T   23097.08943918  .00035783  00000-0  13340-2 0  9994,2 48896  97.5849 232.4628 0007800 159.8947 200.2600 15.27320169 98524,2021-059T,48896,6861.964,94.283,489.182,478.477,0,
GENERATED VIA SPACETRACK.ORG API,18 SPCS,48896,SPACEBEE-105,PAYLOAD,U,21059T,2023/4/7 8:26,739104,15.27343136,0.0007777,97.5849,232.7291,159.1905,200.9652,0,999,9856,0.0014521,0.00039001,0,3882626,0 SPACEBEE-105,1 48896U 21059T   23097.35150161  .00039001  00000-0  14521-2 0  9993,2 48896  97.5849 232.7291 0007777 159.1905 200.9652 15.27343136 98560,2021-059T,48896,6861.895,94.281,489.097,478.424,0,
GENERATED VIA SPACETRACK.ORG API,18 SPCS,48896,SPACEBEE-105,PAYLOAD,U,21059T,2023/4/8 8:01,403584,15.27413145,0.0007727,97.5851,233.7281,156.2698,203.8899,0,999,9871,0.0012978,0.00034904,0,3883328,0 SPACEBEE-105,1 48896U 21059T   23098.33420606  .00034904  00000-0  12978-2 0  9997,2 48896  97.5851 233.7281 0007727 156.2698 203.8899 15.27413145 98715,2021-059T,48896,6861.686,94.277,488.853,478.249,0,
GENERATED VIA SPACETRACK.ORG API,18 SPCS,48896,SPACEBEE-105,PAYLOAD,U,21059T,2023/4/8 8:01,403584,15.27413145,0.0007727,97.5851,233.7281,156.2698,203.8899,0,999,9871,0.0012978,0.00034904,0,3883527,0 SPACEBEE-105,1 48896U 21059T   23098.33420606  .00034904  00000-0  12978-2 0  9997,2 48896  97.5851 233.7281 0007727 156.2698 203.8899 15.27413145 98715,2021-059T,48896,6861.686,94.277,488.853,478.249,0,
GENERATED VIA SPACETRACK.ORG API,18 SPCS,48896,SPACEBEE-105,PAYLOAD,U,21059T,2023/4/9 7:36,85024,15.27485687,0.0007748,97.5855,234.7275,152.935,207.2294,0,999,9886,0.0013221,0.00035641,0,3884332,0 SPACEBEE-105,1 48896U 21059T   23099.31686441  .00035641  00000-0  13221-2 0  9998,2 48896  97.5855 234.7275 0007748 152.9350 207.2294 15.27485687 98867,2021-059T,48896,6861.469,94.273,488.65,478.017,0,
GENERATED VIA SPACETRACK.ORG API,18 SPCS,48896,SPACEBEE-105,PAYLOAD,U,21059T,2023/4/9 20:10,409024,15.27522947,0.0007765,97.5858,235.2602,150.9705,209.1966,0,999,9894,0.0012919,0.00034861,0,3884435,0 SPACEBEE-105,1 48896U 21059T   23099.84093066  .00034861  00000-0  12919-2 0  9997,2 48896  97.5858 235.2602 0007765 150.9705 209.1966 15.27522947 98948,2021-059T,48896,6861.357,94.27,488.55,477.894,0,
GENERATED VIA SPACETRACK.ORG API,18 SPCS,48896,SPACEBEE-105,PAYLOAD,U,21059T,2023/4/10 7:11,895744,15.27556903,0.0007742,97.5858,235.7266,149.4957,210.6733,0,999,9901,0.0013914,0.00037604,0,3885195,0 SPACEBEE-105,1 48896U 21059T   23100.29947796  .00037604  00000-0  13914-2 0  9991,2 48896  97.5858 235.7266 0007742 149.4957 210.6733 15.27556903 99013,2021-059T,48896,6861.255,94.268,488.432,477.808,0,
GENERATED VIA SPACETRACK.ORG API,18 SPCS,48896,SPACEBEE-105,PAYLOAD,U,21059T,2023/4/11 8:20,833568,15.2763688,0.0007691,97.5856,236.7927,146.1817,213.9914,0,999,9917,0.0012421,0.00033624,0,3885661,0 SPACEBEE-105,1 48896U 21059T   23101.34754437  .00033624  00000-0  12421-2 0  9996,2 48896  97.5856 236.7927 0007691 146.1817 213.9914 15.27636880 99175,2021-059T,48896,6861.016,94.263,488.158,477.604,0,
GENERATED VIA SPACETRACK.ORG API,18 SPCS,48896,SPACEBEE-105,PAYLOAD,U,21059T,2023/4/11 8:20,833568,15.2763688,0.0007691,97.5856,236.7927,146.1817,213.9914,0,999,9917,0.0012421,0.00033624,0,3885783,0 SPACEBEE-105,1 48896U 21059T   23101.34754437  .00033624  00000-0  12421-2 0  9996,2 48896  97.5856 236.7927 0007691 146.1817 213.9914 15.27636880 99175,2021-059T,48896,6861.016,94.263,488.158,477.604,0,
GENERATED VIA SPACETRACK.ORG API,18 SPCS,48896,SPACEBEE-105,PAYLOAD,U,21059T,2023/4/11 19:20,233216,15.27673776,0.000767,97.5855,237.2592,144.6796,215.4952,0,999,9924,0.0013031,0.00035326,0,3885919,0 SPACEBEE-105,1 48896U 21059T   23101.80605594  .00035326  00000-0  13031-2 0  9995,2 48896  97.5855 237.2592 0007670 144.6796 215.4952 15.27673776 99246,2021-059T,48896,6860.905,94.261,488.033,477.508,0,
GENERATED VIA SPACETRACK.ORG API,18 SPCS,48896,SPACEBEE-105,PAYLOAD,U,21059T,2023/4/12 14:12,266880,15.27733022,0.0007616,97.5854,238.0589,142.1064,218.0712,0,999,9936,0.0013313,0.00036161,0,3886349,0 SPACEBEE-105,1 48896U 21059T   23102.59205170  .00036161  00000-0  13313-2 0  9999,2 48896  97.5854 238.0589 0007616 142.1064 218.0712 15.27733022 99368,2021-059T,48896,6860.728,94.257,487.818,477.368,0,
GENERATED VIA SPACETRACK.ORG API,18 SPCS,48896,SPACEBEE-105,PAYLOAD,U,21059T,2023/4/13 9:04,641152,15.27796142,0.0007618,97.5856,238.8588,138.8708,221.3106,0,999,9948,0.0014274,0.00038865,0,3886564,0 SPACEBEE-105,1 48896U 21059T   23103.37801668  .00038865  00000-0  14274-2 0  9990,2 48896  97.5856 238.8588 0007618 138.8708 221.3106 15.27796142 99485,2021-059T,48896,6860.539,94.253,487.63,477.178,0,
GENERATED VIA SPACETRACK.ORG API,18 SPCS,48896,SPACEBEE-105,PAYLOAD,U,21059T,2023/4/14 8:39,942912,15.27876224,0.0007569,97.5853,239.8584,135.722,224.4626,0,999,9963,0.001521,0.00041534,0,3887333,0 SPACEBEE-105,1 48896U 21059T   23104.36042758  .00041534  00000-0  15210-2 0  9995,2 48896  97.5853 239.8584 0007569 135.7220 224.4626 15.27876224 99637,2021-059T,48896,6860.299,94.248,487.357,476.972,0,
GENERATED VIA SPACETRACK.ORG API,18 SPCS,48896,SPACEBEE-105,PAYLOAD,U,21059T,2023/4/14 22:47,804128,15.27931716,0.0007498,97.5851,240.4582,134.0168,226.169,0,999,9972,0.0016492,0.00045138,0,3887685,0 SPACEBEE-105,1 48896U 21059T   23104.94984727  .00045138  00000-0  16492-2 0  9997,2 48896  97.5851 240.4582 0007498 134.0168 226.1690 15.27931716 99723,2021-059T,48896,6860.133,94.245,487.142,476.854,0,
